[{"OBJECT_NAME":"STARLINK-31092","OBJECT_ID":"2023-203L","EPOCH":"2026-03-09T08:53:27.034656","MEAN_MOTION":15.27572454,"ECCENTRICITY":5.295e-5,"INCLINATION":42.9979,"RA_OF_ASC_NODE":68.796,"ARG_OF_PERICENTER":234.8552,"MEAN_ANOMALY":125.225,"EPHEMERIS_TYPE":0,"CLASSIFICATION_TYPE":"U","NORAD_CAT_ID":58628,"ELEMENT_SET_NO":999,"REV_AT_EPOCH":12351,"BSTAR":-9.667166e-6,"MEAN_MOTION_DOT":-5.28e-6,"MEAN_MOTION_DDOT":0},{"OBJECT_NAME":"HAWK-11C","OBJECT_ID":"2024-247E","EPOCH":"2026-03-09T12:17:35.407968","MEAN_MOTION":15.2884802,"ECCENTRICITY":0.00059001,"INCLINATION":45.0045,"RA_OF_ASC_NODE":114.8762,"ARG_OF_PERICENTER":329.704,"MEAN_ANOMALY":30.3502,"EPHEMERIS_TYPE":0,"CLASSIFICATION_TYPE":"U","NORAD_CAT_ID":62381,"ELEMENT_SET_NO":999,"REV_AT_EPOCH":6774,"BSTAR":0.00033290115,"MEAN_MOTION_DOT":9.223e-5,"MEAN_MOTION_DDOT":0}]
